ISS (ZARYA)             
1 25544U 98067A   26088.13267411  .00012260  00000+0  23326-3 0  9998
2 25544  51.6344 336.2407 0006215 245.2164 114.8178 15.48624340559341
POISK                   
1 36086U 09060A   26088.13267411  .00012260  00000+0  23326-3 0  9996
2 36086  51.6344 336.2407 0006215 245.2164 114.8178 15.48624340559142
CSS (TIANHE)            
1 48274U 21035A   26087.97092897  .00015046  00000+0  17362-3 0  9997
2 48274  41.4668  90.7542 0003972  51.5615 308.5580 15.61596075280629
ISS (NAUKA)             
1 49044U 21066A   26088.13267411  .00012260  00000+0  23326-3 0  9994
2 49044  51.6344 336.2407 0006215 245.2164 114.8178 15.48624340559184
FREGAT DEB              
1 49271U 11037PF  26087.45747748  .00010214  00000+0  14561-1 0  9999
2 49271  51.6446 244.4001 0961080 102.4503 268.5459 12.40739176215024
CSS (WENTIAN)           
1 53239U 22085A   26087.97092897  .00015046  00000+0  17362-3 0  9990
2 53239  41.4668  90.7542 0003972  51.5615 308.5580 15.61596075280851
CSS (MENGTIAN)          
1 54216U 22143A   26087.97092897  .00015046  00000+0  17362-3 0  9991
2 54216  41.4668  90.7542 0003972  51.5615 308.5580 15.61596075280857
TIANZHOU-9              
1 64786U 25149A   26087.97092897  .00015046  00000+0  17362-3 0  9993
2 64786  41.4668  90.7542 0003972  51.5615 308.5580 15.61596075280850
PROGRESS-MS 32          
1 65586U 25204A   26087.87455012  .00011057  00000+0  21128-3 0  9998
2 65586  51.6344 337.5169 0006219 244.1555 115.8792 15.48616916554502
YOTSUBA-KULOVER         
1 65941U 98067XN  26087.99225407  .00405106  73492-4  12273-2 0  9998
2 65941  51.6182 316.4343 0005914 215.2444 144.8172 15.91531273 26568
BOTAN                   
1 65943U 98067XQ  26088.00362520  .00380721  65359-4  12093-2 0  9999
2 65943  51.6218 316.5360 0006247 212.3365 147.7258 15.90616993 26569
HRC MONOBLOCK CAMERA    
1 66052U 98067XR  26088.07020028  .00056778  00000+0  58517-3 0  9993
2 66052  51.6285 327.5705 0003867 184.2489 175.8474 15.64252683 25428
