CCSDS_OMM_VERS = 2.0
CREATION_DATE  = 
ORIGINATOR     = 

OBJECT_NAME    = ISS (ZARYA)
OBJECT_ID      = 1998-067A
CENTER_NAME    = EARTH
REF_FRAME      = TEME
TIME_SYSTEM    = UTC
MEAN_ELEMENT_THEORY = SGP/SGP4

EPOCH          = 2026-03-29T03:11:03.043104
MEAN_MOTION    = 15.48624340
ECCENTRICITY   = .0006215
INCLINATION    = 51.6344
RA_OF_ASC_NODE = 336.2407
ARG_OF_PERICENTER = 245.2164
MEAN_ANOMALY   = 114.8178

EPHEMERIS_TYPE = 0
CLASSIFICATION_TYPE = U
NORAD_CAT_ID   = 25544
ELEMENT_SET_NO = 999
REV_AT_EPOCH   = 55934
BSTAR          = .23326E-3
MEAN_MOTION_DOT = .1226E-3
MEAN_MOTION_DDOT = 0

CCSDS_OMM_VERS = 2.0
CREATION_DATE  = 
ORIGINATOR     = 

OBJECT_NAME    = POISK
OBJECT_ID      = 2009-060A
CENTER_NAME    = EARTH
REF_FRAME      = TEME
TIME_SYSTEM    = UTC
MEAN_ELEMENT_THEORY = SGP/SGP4

EPOCH          = 2026-03-29T03:11:03.043104
MEAN_MOTION    = 15.48624340
ECCENTRICITY   = .0006215
INCLINATION    = 51.6344
RA_OF_ASC_NODE = 336.2407
ARG_OF_PERICENTER = 245.2164
MEAN_ANOMALY   = 114.8178

EPHEMERIS_TYPE = 0
CLASSIFICATION_TYPE = U
NORAD_CAT_ID   = 36086
ELEMENT_SET_NO = 999
REV_AT_EPOCH   = 55914
BSTAR          = .23326E-3
MEAN_MOTION_DOT = .1226E-3
MEAN_MOTION_DDOT = 0

CCSDS_OMM_VERS = 2.0
CREATION_DATE  = 
ORIGINATOR     = 

OBJECT_NAME    = CSS (TIANHE)
OBJECT_ID      = 2021-035A
CENTER_NAME    = EARTH
REF_FRAME      = TEME
TIME_SYSTEM    = UTC
MEAN_ELEMENT_THEORY = SGP/SGP4

EPOCH          = 2026-03-28T23:18:08.263008
MEAN_MOTION    = 15.61596075
ECCENTRICITY   = .0003972
INCLINATION    = 41.4668
RA_OF_ASC_NODE = 90.7542
ARG_OF_PERICENTER = 51.5615
MEAN_ANOMALY   = 308.5580

EPHEMERIS_TYPE = 0
CLASSIFICATION_TYPE = U
NORAD_CAT_ID   = 48274
ELEMENT_SET_NO = 999
REV_AT_EPOCH   = 28062
BSTAR          = .17362E-3
MEAN_MOTION_DOT = .15046E-3
MEAN_MOTION_DDOT = 0

CCSDS_OMM_VERS = 2.0
CREATION_DATE  = 
ORIGINATOR     = 

OBJECT_NAME    = ISS (NAUKA)
OBJECT_ID      = 2021-066A
CENTER_NAME    = EARTH
REF_FRAME      = TEME
TIME_SYSTEM    = UTC
MEAN_ELEMENT_THEORY = SGP/SGP4

EPOCH          = 2026-03-29T03:11:03.043104
MEAN_MOTION    = 15.48624340
ECCENTRICITY   = .0006215
INCLINATION    = 51.6344
RA_OF_ASC_NODE = 336.2407
ARG_OF_PERICENTER = 245.2164
MEAN_ANOMALY   = 114.8178

EPHEMERIS_TYPE = 0
CLASSIFICATION_TYPE = U
NORAD_CAT_ID   = 49044
ELEMENT_SET_NO = 999
REV_AT_EPOCH   = 55918
BSTAR          = .23326E-3
MEAN_MOTION_DOT = .1226E-3
MEAN_MOTION_DDOT = 0

CCSDS_OMM_VERS = 2.0
CREATION_DATE  = 
ORIGINATOR     = 

OBJECT_NAME    = FREGAT DEB
OBJECT_ID      = 2011-037PF
CENTER_NAME    = EARTH
REF_FRAME      = TEME
TIME_SYSTEM    = UTC
MEAN_ELEMENT_THEORY = SGP/SGP4

EPOCH          = 2026-03-28T10:58:46.054272
MEAN_MOTION    = 12.40739176
ECCENTRICITY   = .09610804
INCLINATION    = 51.6446
RA_OF_ASC_NODE = 244.4001
ARG_OF_PERICENTER = 102.4503
MEAN_ANOMALY   = 268.5459

EPHEMERIS_TYPE = 0
CLASSIFICATION_TYPE = U
NORAD_CAT_ID   = 49271
ELEMENT_SET_NO = 999
REV_AT_EPOCH   = 21502
BSTAR          = .14560573E-1
MEAN_MOTION_DOT = .10214E-3
MEAN_MOTION_DDOT = 0

CCSDS_OMM_VERS = 2.0
CREATION_DATE  = 
ORIGINATOR     = 

OBJECT_NAME    = CSS (WENTIAN)
OBJECT_ID      = 2022-085A
CENTER_NAME    = EARTH
REF_FRAME      = TEME
TIME_SYSTEM    = UTC
MEAN_ELEMENT_THEORY = SGP/SGP4

EPOCH          = 2026-03-28T23:18:08.263008
MEAN_MOTION    = 15.61596075
ECCENTRICITY   = .0003972
INCLINATION    = 41.4668
RA_OF_ASC_NODE = 90.7542
ARG_OF_PERICENTER = 51.5615
MEAN_ANOMALY   = 308.5580

EPHEMERIS_TYPE = 0
CLASSIFICATION_TYPE = U
NORAD_CAT_ID   = 53239
ELEMENT_SET_NO = 999
REV_AT_EPOCH   = 28085
BSTAR          = .17362E-3
MEAN_MOTION_DOT = .15046E-3
MEAN_MOTION_DDOT = 0

CCSDS_OMM_VERS = 2.0
CREATION_DATE  = 
ORIGINATOR     = 

OBJECT_NAME    = CSS (MENGTIAN)
OBJECT_ID      = 2022-143A
CENTER_NAME    = EARTH
REF_FRAME      = TEME
TIME_SYSTEM    = UTC
MEAN_ELEMENT_THEORY = SGP/SGP4

EPOCH          = 2026-03-28T23:18:08.263008
MEAN_MOTION    = 15.61596075
ECCENTRICITY   = .0003972
INCLINATION    = 41.4668
RA_OF_ASC_NODE = 90.7542
ARG_OF_PERICENTER = 51.5615
MEAN_ANOMALY   = 308.5580

EPHEMERIS_TYPE = 0
CLASSIFICATION_TYPE = U
NORAD_CAT_ID   = 54216
ELEMENT_SET_NO = 999
REV_AT_EPOCH   = 28085
BSTAR          = .17362E-3
MEAN_MOTION_DOT = .15046E-3
MEAN_MOTION_DDOT = 0

CCSDS_OMM_VERS = 2.0
CREATION_DATE  = 
ORIGINATOR     = 

OBJECT_NAME    = TIANZHOU-9
OBJECT_ID      = 2025-149A
CENTER_NAME    = EARTH
REF_FRAME      = TEME
TIME_SYSTEM    = UTC
MEAN_ELEMENT_THEORY = SGP/SGP4

EPOCH          = 2026-03-28T23:18:08.263008
MEAN_MOTION    = 15.61596075
ECCENTRICITY   = .0003972
INCLINATION    = 41.4668
RA_OF_ASC_NODE = 90.7542
ARG_OF_PERICENTER = 51.5615
MEAN_ANOMALY   = 308.5580

EPHEMERIS_TYPE = 0
CLASSIFICATION_TYPE = U
NORAD_CAT_ID   = 64786
ELEMENT_SET_NO = 999
REV_AT_EPOCH   = 28085
BSTAR          = .17362E-3
MEAN_MOTION_DOT = .15046E-3
MEAN_MOTION_DDOT = 0

CCSDS_OMM_VERS = 2.0
CREATION_DATE  = 
ORIGINATOR     = 

OBJECT_NAME    = PROGRESS-MS 32
OBJECT_ID      = 2025-204A
CENTER_NAME    = EARTH
REF_FRAME      = TEME
TIME_SYSTEM    = UTC
MEAN_ELEMENT_THEORY = SGP/SGP4

EPOCH          = 2026-03-28T20:59:21.130368
MEAN_MOTION    = 15.48616916
ECCENTRICITY   = .0006219
INCLINATION    = 51.6344
RA_OF_ASC_NODE = 337.5169
ARG_OF_PERICENTER = 244.1555
MEAN_ANOMALY   = 115.8792

EPHEMERIS_TYPE = 0
CLASSIFICATION_TYPE = U
NORAD_CAT_ID   = 65586
ELEMENT_SET_NO = 999
REV_AT_EPOCH   = 55450
BSTAR          = .21127888E-3
MEAN_MOTION_DOT = .11057E-3
MEAN_MOTION_DDOT = 0

CCSDS_OMM_VERS = 2.0
CREATION_DATE  = 
ORIGINATOR     = 

OBJECT_NAME    = YOTSUBA-KULOVER
OBJECT_ID      = 1998-067XN
CENTER_NAME    = EARTH
REF_FRAME      = TEME
TIME_SYSTEM    = UTC
MEAN_ELEMENT_THEORY = SGP/SGP4

EPOCH          = 2026-03-28T23:48:50.751648
MEAN_MOTION    = 15.91531273
ECCENTRICITY   = .0005914
INCLINATION    = 51.6182
RA_OF_ASC_NODE = 316.4343
ARG_OF_PERICENTER = 215.2444
MEAN_ANOMALY   = 144.8172

EPHEMERIS_TYPE = 0
CLASSIFICATION_TYPE = U
NORAD_CAT_ID   = 65941
ELEMENT_SET_NO = 999
REV_AT_EPOCH   = 2656
BSTAR          = .12273E-2
MEAN_MOTION_DOT = .405106E-2
MEAN_MOTION_DDOT = .73492E-4

CCSDS_OMM_VERS = 2.0
CREATION_DATE  = 
ORIGINATOR     = 

OBJECT_NAME    = BOTAN
OBJECT_ID      = 1998-067XQ
CENTER_NAME    = EARTH
REF_FRAME      = TEME
TIME_SYSTEM    = UTC
MEAN_ELEMENT_THEORY = SGP/SGP4

EPOCH          = 2026-03-29T00:05:13.217280
MEAN_MOTION    = 15.90616993
ECCENTRICITY   = .0006247
INCLINATION    = 51.6218
RA_OF_ASC_NODE = 316.5360
ARG_OF_PERICENTER = 212.3365
MEAN_ANOMALY   = 147.7258

EPHEMERIS_TYPE = 0
CLASSIFICATION_TYPE = U
NORAD_CAT_ID   = 65943
ELEMENT_SET_NO = 999
REV_AT_EPOCH   = 2656
BSTAR          = .12093E-2
MEAN_MOTION_DOT = .380721E-2
MEAN_MOTION_DDOT = .65359E-4

CCSDS_OMM_VERS = 2.0
CREATION_DATE  = 
ORIGINATOR     = 

OBJECT_NAME    = HRC MONOBLOCK CAMERA
OBJECT_ID      = 1998-067XR
CENTER_NAME    = EARTH
REF_FRAME      = TEME
TIME_SYSTEM    = UTC
MEAN_ELEMENT_THEORY = SGP/SGP4

EPOCH          = 2026-03-29T01:41:05.304192
MEAN_MOTION    = 15.64252683
ECCENTRICITY   = .0003867
INCLINATION    = 51.6285
RA_OF_ASC_NODE = 327.5705
ARG_OF_PERICENTER = 184.2489
MEAN_ANOMALY   = 175.8474

EPHEMERIS_TYPE = 0
CLASSIFICATION_TYPE = U
NORAD_CAT_ID   = 66052
ELEMENT_SET_NO = 999
REV_AT_EPOCH   = 2542
BSTAR          = .58517E-3
MEAN_MOTION_DOT = .56778E-3
MEAN_MOTION_DDOT = 0

